NORAD_CAT_ID,OBJECT_NAME,OBJECT_TYPE,EPOCH,MEAN_MOTION,ECCENTRICITY,INCLINATION,RA_OF_ASC_NODE,ARG_OF_PERICENTER,MEAN_ANOMALY,BSTAR,MEAN_MOTION_DOT,MEAN_MOTION_DDOT,TLE_LINE0,TLE_LINE1,TLE_LINE2,SEMIMAJOR_AXIS,PERIOD,APOGEE,PERIGEE,DECAYED
52115.0,STARLINK-3685,PAYLOAD,2024-04-30 13:36:50,15.08833918,0.0001407,53.217,243.3367,98.5911,261.524,0.00011464,1.537e-05,0.0,0 STARLINK-3685,1 52115U 22029AD  24121.56724818  .00001537  00000-0  11464-3 0  9995,2 52115  53.2170 243.3367 0001407  98.5911 261.5240 15.08833918118418,6917.899,95.438,540.737,538.791,0.0
52115.0,STARLINK-3685,PAYLOAD,2024-04-30 15:12:13,15.08835399,0.0001422,53.2179,243.0386,100.5478,259.5675,7.4059e-05,8.91e-06,0.0,0 STARLINK-3685,1 52115U 22029AD  24121.63348766  .00000891  00000-0  74059-4 0  9999,2 52115  53.2179 243.0386 0001422 100.5478 259.5675 15.08835399118429,6917.894,95.438,540.743,538.776,0.0
52115.0,STARLINK-3685,PAYLOAD,2024-05-01 00:44:31,15.08848268,0.0001326,53.217,241.2526,97.0384,263.0759,0.00020763,3.019e-05,0.0,0 STARLINK-3685,1 52115U 22029AD  24122.03092088  .00003019  00000-0  20763-3 0  9994,2 52115  53.2170 241.2526 0001326  97.0384 263.0759 15.08848268118483,6917.855,95.437,540.637,538.803,0.0
52115.0,STARLINK-3685,PAYLOAD,2024-05-02 13:18:23,15.08828755,0.0001561,53.2156,234.4097,85.6203,274.4967,-0.00029274,-4.943e-05,0.0,0 STARLINK-3685,1 52115U 22029AD  24123.55443898 -.00004943  00000-0 -29274-3 0  9996,2 52115  53.2156 234.4097 0001561  85.6203 274.4967 15.08828755118710,6917.915,95.438,540.86,538.7,0.0
52115.0,STARLINK-3685,PAYLOAD,2024-05-02 14:53:46,15.0883049,0.0001456,53.215,234.1138,86.5764,273.5394,-0.00019494,-3.388e-05,0.0,0 STARLINK-3685,1 52115U 22029AD  24123.62067943 -.00003388  00000-0 -19494-3 0  9992,2 52115  53.2150 234.1138 0001456  86.5764 273.5394 15.08830490118726,6917.909,95.438,540.782,538.767,0.0
52115.0,STARLINK-3685,PAYLOAD,2024-05-03 00:26:05,15.08844619,0.0001511,53.216,232.3301,89.675,270.4415,0.00012468,1.697e-05,0.0,0 STARLINK-3685,1 52115U 22029AD  24124.01811449  .00001697  00000-0  12468-3 0  9997,2 52115  53.2160 232.3301 0001511  89.6750 270.4415 15.08844619118784,6917.866,95.437,540.777,538.686,0.0
52115.0,STARLINK-3685,PAYLOAD,2024-05-03 14:44:33,15.08855065,0.0001378,53.2142,229.6543,92.9092,267.2058,0.0007963,0.00012413,0.0,0 STARLINK-3685,1 52115U 22029AD  24124.61427621  .00012413  00000-0  79630-3 0  9990,2 52115  53.2142 229.6543 0001378  92.9092 267.2058 15.08855065118872,6917.834,95.437,540.653,538.746,0.0
52115.0,STARLINK-3685,PAYLOAD,2024-05-03 16:19:56,15.08859374,0.0001375,53.2142,229.3552,94.8212,265.2937,0.0008536,0.0001333,0.0,0 STARLINK-3685,1 52115U 22029AD  24124.68051442  .00013330  00000-0  85360-3 0  9997,2 52115  53.2142 229.3552 0001375  94.8212 265.2937 15.08859374118883,6917.821,95.436,540.637,538.735,0.0
52115.0,STARLINK-3685,PAYLOAD,2024-05-04 00:16:51,15.0887356,0.0001651,53.214,227.87,72.373,287.7442,0.0010065,0.00015781,0.0,0 STARLINK-3685,1 52115U 22029AD  24125.01170852  .00015781  00000-0  10065-2 0  9993,2 52115  53.2140 227.8700 0001651  72.3730 287.7442 15.08873560118931,6917.778,95.435,540.785,538.501,0.0
52115.0,STARLINK-3685,PAYLOAD,2024-05-04 12:59:57,15.08832761,0.0001393,53.2147,225.4898,80.5876,279.5274,-0.00031842,-5.351e-05,0.0,0 STARLINK-3685,1 52115U 22029AD  24125.54163446 -.00005351  00000-0 -31842-3 0  9993,2 52115  53.2147 225.4898 0001393  80.5876 279.5274 15.08832761119015,6917.903,95.438,540.731,538.804,0.0
52115.0,STARLINK-3685,PAYLOAD,2024-05-05 12:50:45,15.08838489,0.0001522,53.2165,221.0292,78.5341,281.5822,0.00070194,0.00010901,0.0,0 STARLINK-3685,1 52115U 22029AD  24126.53524308  .00010901  00000-0  70194-3 0  9999,2 52115  53.2165 221.0292 0001522  78.5341 281.5822 15.08838489119164,6917.885,95.438,540.803,538.697,0.0
52115.0,STARLINK-3685,PAYLOAD,2024-05-05 16:01:31,15.08842928,0.0001524,53.2166,220.434,80.1962,279.9203,0.00076788,0.00011955,0.0,0 STARLINK-3685,1 52115U 22029AD  24126.66772263  .00011955  00000-0  76788-3 0  9993,2 52115  53.2166 220.4340 0001524  80.1962 279.9203 15.08842928119181,6917.871,95.437,540.791,538.682,0.0
52115.0,STARLINK-3685,PAYLOAD,2024-05-06 12:41:32,15.08845194,0.0001438,53.2163,216.568,82.623,277.4925,0.00041521,6.327e-05,0.0,0 STARLINK-3685,1 52115U 22029AD  24127.52884329  .00006327  00000-0  41521-3 0  9990,2 52115  53.2163 216.5680 0001438  82.6230 277.4925 15.08845194119317,6917.865,95.437,540.724,538.735,0.0
52115.0,STARLINK-3685,PAYLOAD,2024-05-07 12:32:19,15.08834059,0.0001224,53.2154,212.1051,76.8632,283.2497,2.4093e-05,9.6e-07,0.0,0 STARLINK-3685,1 52115U 22029AD  24128.52244887  .00000096  00000-0  24093-4 0  9993,2 52115  53.2154 212.1051 0001224  76.8632 283.2497 15.08834059119468,6917.899,95.438,540.61,538.917,0.0
52115.0,STARLINK-3685,PAYLOAD,2024-05-08 04:26:10,15.08848353,0.000115,53.2141,209.1321,81.4969,278.6154,0.00022568,3.306e-05,0.0,0 STARLINK-3685,1 52115U 22029AD  24129.18484059  .00003306  00000-0  22568-3 0  9994,2 52115  53.2141 209.1321 0001150  81.4969 278.6154 15.08848353119564,6917.855,95.437,540.515,538.924,0.0
52115.0,STARLINK-3685,PAYLOAD,2024-05-08 12:23:06,15.08841614,0.0001088,53.2158,207.6473,77.5274,282.5839,7.1671e-05,8.53e-06,0.0,0 STARLINK-3685,1 52115U 22029AD  24129.51604284  .00000853  00000-0  71671-4 0  9999,2 52115  53.2158 207.6473 0001088  77.5274 282.5839 15.08841614119611,6917.875,95.437,540.493,538.988,0.0
52115.0,STARLINK-3685,PAYLOAD,2024-05-08 21:55:24,15.08843776,9.44e-05,53.2163,205.8628,77.5723,282.5375,0.00010708,1.417e-05,0.0,0 STARLINK-3685,1 52115U 22029AD  24129.91348017  .00001417  00000-0  10708-3 0  9992,2 52115  53.2163 205.8628 0000944  77.5723 282.5375 15.08843776119670,6917.869,95.437,540.387,539.081,0.0
52115.0,STARLINK-3685,PAYLOAD,2024-05-09 12:13:54,15.08828778,0.0001276,53.2162,203.1888,95.1628,264.951,8.7531e-05,1.105e-05,0.0,0 STARLINK-3685,1 52115U 22029AD  24130.50965474  .00001105  00000-0  87531-4 0  9994,2 52115  53.2162 203.1888 0001276  95.1628 264.9510 15.08828778119767,6917.915,95.438,540.662,538.897,0.0
52115.0,STARLINK-3685,PAYLOAD,2024-05-10 12:04:40,15.08841316,0.0001141,53.2166,198.7275,83.2088,276.9034,0.00011649,1.567e-05,0.0,0 STARLINK-3685,1 52115U 22029AD  24131.50324861  .00001567  00000-0  11649-3 0  9992,2 52115  53.2166 198.7275 0001141  83.2088 276.9034 15.08841316119913,6917.876,95.437,540.531,538.952,0.0
52115.0,STARLINK-3685,PAYLOAD,2024-05-10 13:40:03,15.08842417,0.0001133,53.2165,198.4303,83.5273,276.5848,0.00013201,1.814e-05,0.0,0 STARLINK-3685,1 52115U 22029AD  24131.56948807  .00001814  00000-0  13201-3 0  9991,2 52115  53.2165 198.4303 0001133  83.5273 276.5848 15.08842417119924,6917.873,95.437,540.522,538.954,0.0
52115.0,STARLINK-3685,PAYLOAD,2024-05-11 11:55:25,15.08922422,0.0001378,53.2153,194.266,80.6393,279.4755,0.001904,0.00030213,0.0,0 STARLINK-3685,1 52115U 22029AD  24132.49682026  .00030213  00000-0  19040-2 0  9993,2 52115  53.2153 194.2660 0001378  80.6393 279.4755 15.08922422120064,6917.628,95.432,540.447,538.54,0.0
52115.0,STARLINK-3685,PAYLOAD,2024-05-11 21:27:45,15.08845548,0.0002233,53.2146,192.4828,62.9672,297.1548,-0.00021304,-3.678e-05,0.0,0 STARLINK-3685,1 52115U 22029AD  24132.89427719 -.00003678  00000-0 -21304-3 0  9997,2 52115  53.2146 192.4828 0002233  62.9672 297.1548 15.08845548120123,6917.863,95.437,541.273,538.184,0.0
52115.0,STARLINK-3685,PAYLOAD,2024-05-12 10:10:54,15.08762518,0.0001384,53.2141,190.1061,88.0647,272.0503,-0.00053932,-8.843e-05,0.0,0 STARLINK-3685,1 52115U 22029AD  24133.42424011 -.00008843  00000-0 -53932-3 0  9990,2 52115  53.2141 190.1061 0001384  88.0647 272.0503 15.08762518120206,6918.117,95.442,540.94,539.025,0.0
52115.0,STARLINK-3685,PAYLOAD,2024-05-12 13:21:42,15.08735127,0.0001778,53.2143,189.5128,86.3402,273.7793,0.002741,0.00043479,0.0,0 STARLINK-3685,1 52115U 22029AD  24133.55673877  .00043479  00000-0  27410-2 0  9993,2 52115  53.2143 189.5128 0001778  86.3402 273.7793 15.08735127120228,6918.201,95.444,541.296,538.836,0.0
52115.0,STARLINK-3685,PAYLOAD,2024-05-12 21:18:38,15.0878209,0.0001252,53.2148,188.0239,94.3585,265.7551,0.0026007,0.00041279,0.0,0 STARLINK-3685,1 52115U 22029AD  24133.88794688  .00041279  00000-0  26007-2 0  9990,2 52115  53.2148 188.0239 0001252  94.3585 265.7551 15.08782090120277,6918.057,95.441,540.789,539.056,0.0
52115.0,STARLINK-3685,PAYLOAD,2024-05-13 10:01:42,15.0889184,0.000121,53.2146,185.6427,100.513,259.5998,0.0018935,0.00030019,0.0,0 STARLINK-3685,1 52115U 22029AD  24134.41785376  .00030019  00000-0  18935-2 0  9995,2 52115  53.2146 185.6427 0001210 100.5130 259.5998 15.08891840120356,6917.722,95.434,540.424,538.75,0.0
52115.0,STARLINK-3685,PAYLOAD,2024-05-14 03:30:55,15.08898285,0.0001594,53.2158,182.3732,92.2097,267.9078,0.0011272,0.00017726,0.0,0 STARLINK-3685,1 52115U 22029AD  24135.14647155  .00017726  00000-0  11272-2 0  9995,2 52115  53.2158 182.3732 0001594  92.2097 267.9078 15.08898285120460,6917.702,95.434,540.67,538.465,0.0
52115.0,STARLINK-3685,PAYLOAD,2024-05-14 09:52:27,15.08876424,0.000141,53.2155,181.182,93.9687,266.1466,0.00086431,0.00013508,0.0,0 STARLINK-3685,1 52115U 22029AD  24135.41143029  .00013508  00000-0  86431-3 0  9990,2 52115  53.2155 181.1820 0001410  93.9687 266.1466 15.08876424120500,6917.769,95.435,540.609,538.659,0.0
52115.0,STARLINK-3685,PAYLOAD,2024-05-15 03:21:40,15.08874748,0.0001343,53.2153,177.9115,95.2416,264.873,-6.8285e-05,-1.376e-05,0.0,0 STARLINK-3685,1 52115U 22029AD  24136.14004932 -.00001376  00000-0 -68285-4 0  9990,2 52115  53.2153 177.9115 0001343  95.2416 264.8730 15.08874748120616,6917.774,95.435,540.568,538.71,0.0
52115.0,STARLINK-3685,PAYLOAD,2024-05-15 09:43:13,15.08862547,0.0001307,53.2164,176.7225,97.2977,262.8164,-5.8022e-05,-1.212e-05,0.0,0 STARLINK-3685,1 52115U 22029AD  24136.40501927 -.00001212  00000-0 -58022-4 0  9992,2 52115  53.2164 176.7225 0001307  97.2977 262.8164 15.08862547120658,6917.811,95.436,540.581,538.772,0.0
